{"type": "FeatureCollection", "features": [ {"type": "Feature", "properties": {"norad_id": 37280, "name": "COSMOS 2251 DEB", "group": "cosmos-2251-debris", "lat": -46.08679989498051, "lon": -101.15921482890148, "alt_km": 758.9027331387078, "timestamp": "2025-12-10T05:46:14.224233+00:00", "meta": {"OBJECT_NAME": "COSMOS 2251 DEB", "OBJECT_ID": "1993-036BHU", "EPOCH": "2025-12-07T22:33:59.390208", "MEAN_MOTION": 14.19261757, "ECCENTRICITY": 0.01314572, "INCLINATION": 74.0315, "RA_OF_ASC_NODE": 65.6486, "ARG_OF_PERICENTER": 195.2525, "MEAN_ANOMALY": 164.4641, "EPHEMERIS_TYPE": 0, "CLASSIFICATION_TYPE": "U", "NORAD_CAT_ID": 37280, "ELEMENT_SET_NO": 999, "REV_AT_EPOCH": 57255, "BSTAR": 0.0024447431, "MEAN_MOTION_DOT": 5.567e-05, "MEAN_MOTION_DDOT": 0}, "tle": {"line1": "1 37280U 93036BHU 25341.94027072  .00005567  00000+0  24447-2 0  9992", "line2": "2 37280  74.0315  65.6486 0131457 195.2525 164.4641 14.19261757572550"}}, "geometry": {"type": "Point", "coordinates": [-101.15921482890148, -46.08679989498051]}}, {"type": "Feature", "properties": {"norad_id": 37284, "name": "COSMOS 2251 DEB", "group": "cosmos-2251-debris", "lat": -67.63156315127205, "lon": 116.9929574183776, "alt_km": 753.9015982737892, "timestamp": "2025-12-10T05:46:14.224243+00:00", "meta": {"OBJECT_NAME": "COSMOS 2251 DEB", "OBJECT_ID": "1993-036BHY", "EPOCH": "2025-12-05T19:06:47.225088", "MEAN_MOTION": 14.12657303, "ECCENTRICITY": 0.01604408, "INCLINATION": 74.0121, "RA_OF_ASC_NODE": 169.0185, "ARG_OF_PERICENTER": 322.3384, "MEAN_ANOMALY": 52.3924, "EPHEMERIS_TYPE": 0, "CLASSIFICATION_TYPE": "U", "NORAD_CAT_ID": 37284, "ELEMENT_SET_NO": 999, "REV_AT_EPOCH": 59077, "BSTAR": 0.001984473, "MEAN_MOTION_DOT": 4.13e-05, "MEAN_MOTION_DDOT": 0}, "tle": {"line1": "1 37284U 93036BHY 25339.79637992  .00004130  00000+0  19845-2 0  9995", "line2": "2 37284  74.0121 169.0185 0160440 322.3384  52.3924 14.12657303590776"}}, "geometry": {"type": "Point", "coordinates": [116.9929574183776, -67.63156315127205]}}, {"type": "Feature", "properties": {"norad_id": 37292, "name": "COSMOS 2251 DEB", "group": "cosmos-2251-debris", "lat": 42.3972499190232, "lon": -140.95594770655651, "alt_km": 842.4823054554536, "timestamp": "2025-12-10T05:46:14.224253+00:00", "meta": {"OBJECT_NAME": "COSMOS 2251 DEB", "OBJECT_ID": "1993-036BJG", "EPOCH": "2025-12-02T14:04:30.366912", "MEAN_MOTION": 14.03226454, "ECCENTRICITY": 0.02102512, "INCLINATION": 74.129, "RA_OF_ASC_NODE": 67.3453, "ARG_OF_PERICENTER": 73.1105, "MEAN_ANOMALY": 289.2966, "EPHEMERIS_TYPE": 0, "CLASSIFICATION_TYPE": "U", "NORAD_CAT_ID": 37292, "ELEMENT_SET_NO": 999, "REV_AT_EPOCH": 59706, "BSTAR": 0.0022453288, "MEAN_MOTION_DOT": 4.236e-05, "MEAN_MOTION_DDOT": 0}, "tle": {"line1": "1 37292U 93036BJG 25336.58646258  .00004236  00000+0  22453-2 0  9999", "line2": "2 37292  74.1290  67.3453 0210251  73.1105 289.2966 14.03226454597064"}}, "geometry": {"type": "Point", "coordinates": [-140.95594770655651, 42.3972499190232]}}, {"type": "Feature", "properties": {"norad_id": 37295, "name": "COSMOS 2251 DEB", "group": "cosmos-2251-debris", "lat": -30.254568325303605, "lon": 116.07349262915127, "alt_km": 689.8426445456653, "timestamp": "2025-12-10T05:46:14.224263+00:00", "meta": {"OBJECT_NAME": "COSMOS 2251 DEB", "OBJECT_ID": "1993-036BJK", "EPOCH": "2025-12-08T06:55:47.796960", "MEAN_MOTION": 14.65195432, "ECCENTRICITY": 0.0043741, "INCLINATION": 74.0075, "RA_OF_ASC_NODE": 290.2038, "ARG_OF_PERICENTER": 110.7992, "MEAN_ANOMALY": 249.7871, "EPHEMERIS_TYPE": 0, "CLASSIFICATION_TYPE": "U", "NORAD_CAT_ID": 37295, "ELEMENT_SET_NO": 999, "REV_AT_EPOCH": 82239, "BSTAR": 0.00091244474, "MEAN_MOTION_DOT": 4.952e-05, "MEAN_MOTION_DDOT": 0}, "tle": {"line1": "1 37295U 93036BJK 25342.28874765  .00004952  00000+0  91244-3 0  9992", "line2": "2 37295  74.0075 290.2038 0043741 110.7992 249.7871 14.65195432822395"}}, "geometry": {"type": "Point", "coordinates": [116.07349262915127, -30.254568325303605]}}, {"type": "Feature", "properties": {"norad_id": 37305, "name": "COSMOS 2251 DEB", "group": "cosmos-2251-debris", "lat": -67.7003555935644, "lon": 160.0308812577066, "alt_km": 742.2850956834609, "timestamp": "2025-12-10T05:46:14.224273+00:00", "meta": {"OBJECT_NAME": "COSMOS 2251 DEB", "OBJECT_ID": "1993-036BJV", "EPOCH": "2025-12-09T03:30:34.596000", "MEAN_MOTION": 14.36113297, "ECCENTRICITY": 0.00503049, "INCLINATION": 73.8703, "RA_OF_ASC_NODE": 297.1813, "ARG_OF_PERICENTER": 258.1201, "MEAN_ANOMALY": 101.4307, "EPHEMERIS_TYPE": 0, "CLASSIFICATION_TYPE": "U", "NORAD_CAT_ID": 37305, "ELEMENT_SET_NO": 999, "REV_AT_EPOCH": 66815, "BSTAR": 0.00098361717, "MEAN_MOTION_DOT": 2.879e-05, "MEAN_MOTION_DDOT": 0}, "tle": {"line1": "1 37305U 93036BJV 25343.14623375  .00002879  00000+0  98362-3 0  9993", "line2": "2 37305  73.8703 297.1813 0050304 258.1201 101.4307 14.36113297668159"}}, "geometry": {"type": "Point", "coordinates": [160.0308812577066, -67.7003555935644]}}, {"type": "Feature", "properties": {"norad_id": 37312, "name": "COSMOS 2251 DEB", "group": "cosmos-2251-debris", "lat": -25.936457179831294, "lon": 36.85177876508252, "alt_km": 747.0642729736192, "timestamp": "2025-12-10T05:46:14.224283+00:00", "meta": {"OBJECT_NAME": "COSMOS 2251 DEB", "OBJECT_ID": "1993-036BKC", "EPOCH": "2025-12-09T00:35:23.995392", "MEAN_MOTION": 14.46107555, "ECCENTRICITY": 0.00182852, "INCLINATION": 74.0311, "RA_OF_ASC_NODE": 211.115, "ARG_OF_PERICENTER": 314.7028, "MEAN_ANOMALY": 45.264, "EPHEMERIS_TYPE": 0, "CLASSIFICATION_TYPE": "U", "NORAD_CAT_ID": 37312, "ELEMENT_SET_NO": 999, "REV_AT_EPOCH": 86110, "BSTAR": 0.00057614872, "MEAN_MOTION_DOT": 2.035e-05, "MEAN_MOTION_DDOT": 0}, "tle": {"line1": "1 37312U 93036BKC 25343.02458328  .00002035  00000+0  57615-3 0  9992", "line2": "2 37312  74.0311 211.1150 0018285 314.7028  45.2640 14.46107555861109"}}, "geometry": {"type": "Point", "coordinates": [36.85177876508252, -25.936457179831294]}}, {"type": "Feature", "properties": {"norad_id": 37316, "name": "COSMOS 2251 DEB", "group": "cosmos-2251-debris", "lat": -27.63046435571855, "lon": 17.48447101057058, "alt_km": 601.5182136597059, "timestamp": "2025-12-10T05:46:14.224293+00:00", "meta": {"OBJECT_NAME": "COSMOS 2251 DEB", "OBJECT_ID": "1993-036BKG", "EPOCH": "2025-12-09T02:35:02.214528", "MEAN_MOTION": 14.942513, "ECCENTRICITY": 0.00294151, "INCLINATION": 74.0196, "RA_OF_ASC_NODE": 28.395, "ARG_OF_PERICENTER": 98.2306, "MEAN_ANOMALY": 262.2216, "EPHEMERIS_TYPE": 0, "CLASSIFICATION_TYPE": "U", "NORAD_CAT_ID": 37316, "ELEMENT_SET_NO": 999, "REV_AT_EPOCH": 86089, "BSTAR": 0.0022767675, "MEAN_MOTION_DOT": 0.0002469, "MEAN_MOTION_DDOT": 0}, "tle": {"line1": "1 37316U 93036BKG 25343.10766452  .00024690  00000+0  22768-2 0  9996", "line2": "2 37316  74.0196  28.3950 0029415  98.2306 262.2216 14.94251300860896"}}, "geometry": {"type": "Point", "coordinates": [17.48447101057058, -27.63046435571855]}}, {"type": "Feature", "properties": {"norad_id": 37320, "name": "COSMOS 2251 DEB", "group": "cosmos-2251-debris", "lat": -61.90525075773555, "lon": 75.47847591423128, "alt_km": 625.5376640032637, "timestamp": "2025-12-10T05:46:14.224303+00:00", "meta": {"OBJECT_NAME": "COSMOS 2251 DEB", "OBJECT_ID": "1993-036BKL", "EPOCH": "2025-12-07T10:04:58.850112", "MEAN_MOTION": 14.78679149, "ECCENTRICITY": 0.00469494, "INCLINATION": 74.0461, "RA_OF_ASC_NODE": 228.6135, "ARG_OF_PERICENTER": 316.7124, "MEAN_ANOMALY": 43.0365, "EPHEMERIS_TYPE": 0, "CLASSIFICATION_TYPE": "U", "NORAD_CAT_ID": 37320, "ELEMENT_SET_NO": 999, "REV_AT_EPOCH": 66068, "BSTAR": 0.0013976753, "MEAN_MOTION_DOT": 0.00010421, "MEAN_MOTION_DDOT": 0}, "tle": {"line1": "1 37320U 93036BKL 25341.42012558  .00010421  00000+0  13977-2 0  9994", "line2": "2 37320  74.0461 228.6135 0046949 316.7124  43.0365 14.78679149660685"}}, "geometry": {"type": "Point", "coordinates": [75.47847591423128, -61.90525075773555]}}, {"type": "Feature", "properties": {"norad_id": 37326, "name": "COSMOS 2251 DEB", "group": "cosmos-2251-debris", "lat": -63.102418964450294, "lon": -166.14265714401986, "alt_km": 724.0069692535917, "timestamp": "2025-12-10T05:46:14.224313+00:00", "meta": {"OBJECT_NAME": "COSMOS 2251 DEB", "OBJECT_ID": "1993-036BKS", "EPOCH": "2025-12-09T17:08:40.531200", "MEAN_MOTION": 14.61553594, "ECCENTRICITY": 0.0054797, "INCLINATION": 74.0258, "RA_OF_ASC_NODE": 340.484, "ARG_OF_PERICENTER": 110.429, "MEAN_ANOMALY": 250.2773, "EPHEMERIS_TYPE": 0, "CLASSIFICATION_TYPE": "U", "NORAD_CAT_ID": 37326, "ELEMENT_SET_NO": 999, "REV_AT_EPOCH": 85439, "BSTAR": 0.00082516, "MEAN_MOTION_DOT": 4.157e-05, "MEAN_MOTION_DDOT": 0}, "tle": {"line1": "1 37326U 93036BKS 25343.71435800  .00004157  00000+0  82516-3 0  9998", "line2": "2 37326  74.0258 340.4840 0054797 110.4290 250.2773 14.61553594854399"}}, "geometry": {"type": "Point", "coordinates": [-166.14265714401986, -63.102418964450294]}}, {"type": "Feature", "properties": {"norad_id": 37330, "name": "COSMOS 2251 DEB", "group": "cosmos-2251-debris", "lat": -72.63594159691311, "lon": -173.71934868449253, "alt_km": 717.8823730887552, "timestamp": "2025-12-10T05:46:14.224324+00:00", "meta": {"OBJECT_NAME": "COSMOS 2251 DEB", "OBJECT_ID": "1993-036BKW", "EPOCH": "2025-12-08T14:44:12.757056", "MEAN_MOTION": 14.59521863, "ECCENTRICITY": 0.0057164, "INCLINATION": 74.0185, "RA_OF_ASC_NODE": 302.963, "ARG_OF_PERICENTER": 152.6468, "MEAN_ANOMALY": 207.7728, "EPHEMERIS_TYPE": 0, "CLASSIFICATION_TYPE": "U", "NORAD_CAT_ID": 37330, "ELEMENT_SET_NO": 999, "REV_AT_EPOCH": 86308, "BSTAR": 0.00058808, "MEAN_MOTION_DOT": 2.827e-05, "MEAN_MOTION_DDOT": 0}, "tle": {"line1": "1 37330U 93036BKW 25342.61403654  .00002827  00000+0  58808-3 0  9992", "line2": "2 37330  74.0185 302.9630 0057164 152.6468 207.7728 14.59521863863083"}}, "geometry": {"type": "Point", "coordinates": [-173.71934868449253, -72.63594159691311]}}]}